25621,GLOBALSTAR M023,1999,114.06,-1.0,-,52.01,Inactive,0,LEO,Kazakhstan,Globalstar,Unknown,Unknown,Unknown,1 25621U 99004A   25177.32677973 -.00000147  00000+0 -23798-3 0  9999,2 25621  52.0130  25.6107 0010122 141.2528  29.9751 12.62507535216973,12.62507535,0.0010122,LEO
25622,GLOBALSTAR M040,1999,114.1,-1.0,-,51.99,Inactive,0,LEO,Kazakhstan,Globalstar,Unknown,Unknown,Unknown,1 25622U 99004B   25177.30583784 -.00000084  00000+0  10799-3 0  9990,2 25622  51.9935  29.8433 0001682  65.9445 105.5582 12.62011523216705,12.62011523,0.0001682,LEO
25623,GLOBALSTAR M036,1999,121.35,-1.0,-,51.99,Inactive,0,LEO,Kazakhstan,Globalstar,Unknown,Unknown,Unknown,1 25623U 99004C   25177.38106520  .00000034  00000+0  17027-2 0  9992,2 25623  51.9938 216.0897 0011014  71.1076 302.7283 11.86608438180051,11.86608438,0.0011014,LEO
25624,GLOBALSTAR M038,1999,116.83,-1.0,-,52.0,Inactive,0,LEO,Kazakhstan,Globalstar,Unknown,Unknown,Unknown,1 25624U 99004D   25177.12077404 -.00000075  00000+0  16595-3 0  9999,2 25624  51.9990  45.8438 0002665  70.3550  94.5168 12.32528536203437,12.32528536,0.0002665,LEO
25649,GLOBALSTAR M022,1999,119.75,-1.0,-,52.0,Inactive,0,LEO,Kazakhstan,Globalstar,Unknown,Unknown,Unknown,1 25649U 99012A   25177.53916924 -.00000028  00000+0  71126-3 0  9998,2 25649  52.0041 265.4802 0002951 186.3105 187.5374 12.02500778177583,12.02500778,0.0002951,LEO
25650,GLOBALSTAR M041,1999,120.33,-1.0,-,52.0,Inactive,0,LEO,Kazakhstan,Globalstar,Unknown,Unknown,Unknown,1 25650U 99012B   25177.32259555 -.00000101  00000+0 -19586-3 0  9992,2 25650  51.9995 147.7987 0001815 337.1876  22.8880 11.96681238179618,11.96681238,0.0001815,LEO
25651,GLOBALSTAR M046,1999,119.07,-1.0,-,52.0,Inactive,0,LEO,Kazakhstan,Globalstar,Unknown,Unknown,Unknown,1 25651U 99012C   25177.54252222 -.00000034  00000+0  59925-3 0  9996,2 25651  52.0030 215.2630 0002159 266.6737 260.6665 12.09411413185140,12.09411413,0.0002159,LEO
25652,GLOBALSTAR M037,1999,114.06,450.0,-,52.0,Inactive,1,LEO,Kazakhstan,Globalstar,Commercial,Communications,Soyuz,1 25652U 99012D   25176.95862311 -.00000102  00000+0  92619-5 0  9992,2 25652  51.9981 157.3483 0001834 211.5744 179.9891 12.62447199212381,12.62447199,0.0001834,LEO
